DUBAISAT-1              
1 35682U 09041B   26160.35619570  .00000713  00000+0  11316-3 0  9994
2 35682  98.0043 293.7004 0011757  95.9150 264.3399 14.75111320903941
OCEANSAT-2              
1 35931U 09051A   26160.62205532  .00000066  00000+0  70964-4 0  9997
2 35931  98.2324 148.2281 0014699 259.1816 100.7696 13.99664347878271
WORLDVIEW-2 (WV-2)      
1 35946U 09055A   26160.50932641  .00000095  00000+0  45957-4 0  9998
2 35946  98.4736 234.0646 0003310 235.8228 124.2646 14.37897163874540
SMOS                    
1 36036U 09059A   26160.54500179  .00000232  00000+0  87883-4 0  9991
2 36036  98.4426 347.9920 0001330  89.5314 270.6027 14.39768462872353
YAOGAN-7                
1 36110U 09069A   26160.43873020  .00000464  00000+0  71254-4 0  9993
2 36110  98.0082  46.3534 0025930  65.6607 294.7307 14.78002011888486
TANDEM-X                
1 36605U 10030A   26160.28753286  .00000776  00000+0  40127-4 0  9997
2 36605  97.4454 168.1075 0001902  90.0350 270.1102 15.19149708885449
CARTOSAT-2B             
1 36795U 10035A   26160.62529924  .00000485  00000+0  73377-4 0  9990
2 36795  97.9955 211.2231 0010549 209.6312 150.4303 14.78651353858730
YAOGAN-10               
1 36834U 10038A   26160.62086074  .00001219  00000+0  14812-3 0  9995
2 36834  97.8982 184.0858 0001640  87.6272  63.1652 14.85325316856084
COSMO-SKYMED 4          
1 37216U 10060A   26159.39731509  .00000510  00000+0  70656-4 0  9999
2 37216  97.8890 343.1246 0001413  83.8256 276.3118 14.82162251843269
RESOURCESAT-2           
1 37387U 11015A   26160.48768214  .00000050  00000+0  42990-4 0  9993
2 37387  98.7644 227.9824 0010130 280.3579  79.6456 14.21604772785080
HAIYANG-2A              
1 37781U 11043A   26160.39491309  .00000278  00000+0  33935-3 0  9990
2 37781  99.3399 163.2429 0006307 106.3298 253.8545 13.74551006745585
RASAT                   
1 37791U 11044D   26160.62117437  .00000269  00000+0  55120-4 0  9996
2 37791  98.0567 252.1336 0019646 213.4500 254.1270 14.68159051792073
SRMSAT                  
1 37841U 11058D   26160.53493752  .00000362  00000+0  52397-4 0  9991
2 37841  19.9710 105.7844 0011936 119.8301  40.8059 14.11573956756730
PLEIADES 1A             
1 38012U 11076F   26160.66016630  .00000328  00000+0  80309-4 0  9998
2 38012  98.1972 235.8640 0001547  98.3298  26.5858 14.58566827770893
ZIYUAN 1-02C (ZY 1-02C) 
1 38038U 11079A   26160.63960302  .00000567  00000+0  20091-3 0  9996
2 38038  98.4069 228.1059 0006013 342.2230 121.7130 14.38209655758124
ARIRANG-3 (KOMPSAT-3)   
1 38338U 12025B   26160.64218966  .00000399  00000+0  88460-4 0  9992
2 38338  98.1174 118.2326 0006366 128.6589 231.5184 14.62199581750248
EXACTVIEW-1 (ADS-1B)    
1 38709U 12039C   26160.58728934  .00000102  00000+0  63464-4 0  9992
2 38709  98.9768 277.8061 0010754 188.0392 172.0616 14.24982376721622
SPOT 6                  
1 38755U 12047A   26160.65167976  .00000340  00000+0  82926-4 0  9991
2 38755  98.2117 228.0486 0001435  90.8889 269.2474 14.58559102731952
PLEIADES 1B             
1 39019U 12068A   26160.60198159  .00000486  00000+0  11446-3 0  9999
2 39019  98.1942 235.7580 0001592  93.1805 266.9576 14.58556973719742
GOKTURK 2               
1 39030U 12073A   26160.62134484  .00000147  00000+0  28566-4 0  9997
2 39030  97.6828 358.4323 0001867  59.8713 300.2682 14.75534435723396
LANDSAT 8               
1 39084U 13008A   26160.47100980  .00000258  00000+0  67264-4 0  9993
2 39084  98.2302 230.6977 0001463  95.8215 264.3150 14.57113468696774
SARAL                   
1 39086U 13009A   26160.49919395  .00000080  00000+0  45383-4 0  9997
2 39086  98.5558 347.1641 0001128 347.5084  12.6072 14.32854038694507
GAOFEN-1                
1 39150U 13018A   26160.60860021 -.00000218  00000+0 -23942-4 0  9995
2 39150  97.9092 232.8305 0015878 293.2871  66.6667 14.76527238707129
VNREDSAT 1              
1 39160U 13021B   26160.64352647  .00000400  00000+0  83378-4 0  9994
2 39160  97.9082 214.3494 0001683  88.2038 271.9359 14.64848895699186
ARIRANG-5 (KOMPSAT-5)   
1 39227U 13042A   26159.98539375  .00001848  00000+0  13611-3 0  9990
2 39227  97.6218 346.8017 0004248 139.4546 220.6997 15.04559791702625
SKYSAT-A                
1 39418U 13066C   26160.38694827  .00002352  00000+0  13645-3 0  9996
2 39418  97.3820 210.0326 0020812 345.8036  14.2608 15.12933029687302
DUBAISAT-2              
1 39419U 13066D   26160.58339578  .00004108  00000+0  25538-3 0  9993
2 39419  97.4565 150.9272 0012726  63.4618 296.7915 15.10125638685242
GPM-CORE                
1 39574U 14009C   26160.56942815  .00006275  00000+0  13527-3 0  9997
2 39574  64.9729 333.6422 0012089 270.4328  89.5428 15.45460952696633
SENTINEL-1A             
1 39634U 14016A   26160.61892685  .00000271  00000+0  67184-4 0  9996
2 39634  98.1783 168.2623 0001434  81.1218 279.0144 14.59201079648917
KAZEOSAT 1              
1 39731U 14024A   26160.59753157  .00000257  00000+0  91298-4 0  9997
2 39731  98.3202 233.2335 0001469  74.9737 285.1615 14.42077703637466
