OBJECT_NAME,OBJECT_ID,EPOCH,MEAN_MOTION,ECCENTRICITY,INCLINATION,RA_OF_ASC_NODE,ARG_OF_PERICENTER,MEAN_ANOMALY,EPHEMERIS_TYPE,CLASSIFICATION_TYPE,NORAD_CAT_ID,ELEMENT_SET_NO,REV_AT_EPOCH,BSTAR,MEAN_MOTION_DOT,MEAN_MOTION_DDOT
DUBAISAT-1,2009-041B,2026-06-09T08:32:55.308480,14.75111320,.00117577,98.0043,293.7004,95.9150,264.3399,0,U,35682,999,90394,.11315599E-3,.713E-5,0
OCEANSAT-2,2009-051A,2026-06-09T14:55:45.579648,13.99664347,.00146996,98.2324,148.2281,259.1816,100.7696,0,U,35931,999,87827,.7096443E-4,.66E-6,0
WORLDVIEW-2 (WV-2),2009-055A,2026-06-09T12:13:25.801824,14.37897163,.00033109,98.4736,234.0646,235.8228,124.2646,0,U,35946,999,87454,.45957312E-4,.95E-6,0
SMOS,2009-059A,2026-06-09T13:04:48.154656,14.39768462,.00013307,98.4426,347.9920,89.5314,270.6027,0,U,36036,999,87235,.87882679E-4,.232E-5,0
YAOGAN-7,2009-069A,2026-06-09T10:31:46.289280,14.78002011,.00259307,98.0082,46.3534,65.6607,294.7307,0,U,36110,999,88848,.7125414E-4,.464E-5,0
TANDEM-X,2010-030A,2026-06-09T06:54:02.839104,15.19149708,.00019024,97.4454,168.1075,90.0350,270.1102,0,U,36605,999,88544,.40127109E-4,.776E-5,0
CARTOSAT-2B,2010-035A,2026-06-09T15:00:25.854336,14.78651353,.00105496,97.9955,211.2231,209.6312,150.4303,0,U,36795,999,85873,.7337652E-4,.485E-5,0
YAOGAN-10,2010-038A,2026-06-09T14:54:02.367936,14.85325316,.00016407,97.8982,184.0858,87.6272,63.1652,0,U,36834,999,85608,.14811989E-3,.1219E-4,0
COSMO-SKYMED 4,2010-060A,2026-06-08T09:32:08.023776,14.82162251,.00014135,97.8890,343.1246,83.8256,276.3118,0,U,37216,999,84326,.70656283E-4,.51E-5,0
RESOURCESAT-2,2011-015A,2026-06-09T11:42:15.736896,14.21604772,.00101302,98.7644,227.9824,280.3579,79.6456,0,U,37387,999,78508,.42990412E-4,.5E-6,0
HAIYANG-2A,2011-043A,2026-06-09T09:28:40.490976,13.74551006,.00063077,99.3399,163.2429,106.3298,253.8545,0,U,37781,999,74558,.33934945E-3,.278E-5,0
RASAT,2011-044D,2026-06-09T14:54:29.465568,14.68159051,.00196466,98.0567,252.1336,213.4500,254.1270,0,U,37791,999,79207,.55119849E-4,.269E-5,0
SRMSAT,2011-058D,2026-06-09T12:50:18.601728,14.11573956,.00119361,19.9710,105.7844,119.8301,40.8059,0,U,37841,999,75673,.52396644E-4,.362E-5,0
PLEIADES 1A,2011-076F,2026-06-09T15:50:38.368320,14.58566827,.00015476,98.1972,235.8640,98.3298,26.5858,0,U,38012,999,77089,.80308612E-4,.328E-5,0
ZIYUAN 1-02C (ZY 1-02C),2011-079A,2026-06-09T15:21:01.700928,14.38209655,.00060131,98.4069,228.1059,342.2230,121.7130,0,U,38038,999,75812,.20090943E-3,.567E-5,0
ARIRANG-3 (KOMPSAT-3),2012-025B,2026-06-09T15:24:45.186624,14.62199581,.00063664,98.1174,118.2326,128.6589,231.5184,0,U,38338,999,75024,.88460397E-4,.399E-5,0
EXACTVIEW-1 (ADS-1B),2012-039C,2026-06-09T14:05:41.798976,14.24982376,.00107544,98.9768,277.8061,188.0392,172.0616,0,U,38709,999,72162,.63463568E-4,.102E-5,0
SPOT 6,2012-047A,2026-06-09T15:38:25.131264,14.58559102,.00014359,98.2117,228.0486,90.8889,269.2474,0,U,38755,999,73195,.82926224E-4,.34E-5,0
PLEIADES 1B,2012-068A,2026-06-09T14:26:51.209376,14.58556973,.00015924,98.1942,235.7580,93.1805,266.9576,0,U,39019,999,71974,.11446165E-3,.486E-5,0
GOKTURK 2,2012-073A,2026-06-09T14:54:44.194176,14.75534435,.00018673,97.6828,358.4323,59.8713,300.2682,0,U,39030,999,72339,.28565819E-4,.147E-5,0
LANDSAT 8,2013-008A,2026-06-09T11:18:15.246720,14.57113468,.0001463,98.2302,230.6977,95.8215,264.3150,0,U,39084,999,69677,.67263842E-4,.258E-5,0
SARAL,2013-009A,2026-06-09T11:58:50.357280,14.32854038,.00011288,98.5558,347.1641,347.5084,12.6072,0,U,39086,999,69450,.45383349E-4,.8E-6,0
GAOFEN-1,2013-018A,2026-06-09T14:36:23.058144,14.76527238,.00158783,97.9092,232.8305,293.2871,66.6667,0,U,39150,999,70712,-.23941889E-4,-.218E-5,0
VNREDSAT 1,2013-021B,2026-06-09T15:26:40.687008,14.64848895,.00016838,97.9082,214.3494,88.2038,271.9359,0,U,39160,999,69918,.83377897E-4,.4E-5,0
ARIRANG-5 (KOMPSAT-5),2013-042A,2026-06-08T23:38:58.020000,15.04559791,.0004248,97.6218,346.8017,139.4546,220.6997,0,U,39227,999,70262,.13610837E-3,.1848E-4,0
SKYSAT-A,2013-066C,2026-06-09T09:17:12.330528,15.12933029,.00208127,97.3820,210.0326,345.8036,14.2608,0,U,39418,999,68730,.13645311E-3,.2352E-4,0
DUBAISAT-2,2013-066D,2026-06-09T14:00:05.395392,15.10125638,.0012726,97.4565,150.9272,63.4618,296.7915,0,U,39419,999,68524,.25537673E-3,.4108E-4,0
GPM-CORE,2014-009C,2026-06-09T13:39:58.592160,15.45460952,.00120894,64.9729,333.6422,270.4328,89.5428,0,U,39574,999,69663,.13527428E-3,.6275E-4,0
SENTINEL-1A,2014-016A,2026-06-09T14:51:15.279840,14.59201079,.00014344,98.1783,168.2623,81.1218,279.0144,0,U,39634,999,64891,.6718407E-4,.271E-5,0
KAZEOSAT 1,2014-024A,2026-06-09T14:20:26.727648,14.42077703,.0001469,98.3202,233.2335,74.9737,285.1615,0,U,39731,999,63746,.91297553E-4,.257E-5,0
